NORAD_CAT_ID,OBJECT_NAME,OBJECT_TYPE,EPOCH,MEAN_MOTION,ECCENTRICITY,INCLINATION,RA_OF_ASC_NODE,ARG_OF_PERICENTER,MEAN_ANOMALY,BSTAR,MEAN_MOTION_DOT,MEAN_MOTION_DDOT,TLE_LINE0,TLE_LINE1,TLE_LINE2,SEMIMAJOR_AXIS,PERIOD,APOGEE,PERIGEE,DECAYED
56453.0,STARLINK-5935,PAYLOAD,2024-04-19 04:42:56,14.98315256,0.0002875,69.9987,83.0343,267.5355,92.5475,8.7965e-05,9.56e-06,0.0,0 STARLINK-5935,1 56453U 23064F   24110.19648266  .00000956  00000-0  87965-4 0  9997,2 56453  69.9987  83.0343 0002875 267.5355  92.5475 14.98315256 52327,6950.238,96.108,574.102,570.105,0.0
56453.0,STARLINK-5935,PAYLOAD,2024-04-19 07:55:11,14.9832152,0.0002725,69.9998,82.7004,257.0873,102.9982,0.00016601,1.888e-05,0.0,0 STARLINK-5935,1 56453U 23064F   24110.32999717  .00001888  00000-0  16601-3 0  9995,2 56453  69.9998  82.7004 0002725 257.0873 102.9982 14.98321520 52344,6950.219,96.108,573.978,570.19,0.0
56453.0,STARLINK-5935,PAYLOAD,2024-04-19 22:20:24,14.98323577,0.0002759,69.9998,81.1844,257.9949,102.0901,0.00026083,3.02e-05,0.0,0 STARLINK-5935,1 56453U 23064F   24110.93083707  .00003020  00000-0  26083-3 0  9990,2 56453  69.9998  81.1844 0002759 257.9949 102.0901 14.98323577 52075,6950.213,96.107,573.995,570.16,0.0
56453.0,STARLINK-5935,PAYLOAD,2024-04-20 04:44:56,14.98328005,0.0002381,70.0006,80.5105,246.2146,113.8763,0.0003455,4.032e-05,0.0,0 STARLINK-5935,1 56453U 23064F   24111.19787223  .00004032  00000-0  34550-3 0  9995,2 56453  70.0006  80.5105 0002381 246.2146 113.8763 14.98328005 52473,6950.199,96.107,573.719,570.409,0.0
56453.0,STARLINK-5935,PAYLOAD,2024-04-20 07:57:11,14.98334973,0.0002448,70.0004,80.1743,254.3495,105.7394,0.00035181,4.108e-05,0.0,0 STARLINK-5935,1 56453U 23064F   24111.33138704  .00004108  00000-0  35181-3 0  9990,2 56453  70.0004  80.1743 0002448 254.3495 105.7394 14.98334973 52130,6950.178,96.107,573.744,570.341,0.0
56453.0,STARLINK-5935,PAYLOAD,2024-04-21 04:46:59,14.98314041,0.0002739,70.0001,77.9885,254.6476,105.438,-0.00018142,-2.256e-05,0.0,0 STARLINK-5935,1 56453U 23064F   24112.19929830 -.00002256  00000-0 -18142-3 0  9995,2 56453  70.0001  77.9885 0002739 254.6476 105.4380 14.98314041 52623,6950.242,96.108,574.011,570.204,0.0
56453.0,STARLINK-5935,PAYLOAD,2024-04-21 07:59:15,14.98319372,0.0002776,69.9994,77.6511,257.7436,102.3412,-0.00022384,-2.762e-05,0.0,0 STARLINK-5935,1 56453U 23064F   24112.33281772 -.00002762  00000-0 -22384-3 0  9992,2 56453  69.9994  77.6511 0002776 257.7436 102.3412 14.98319372 52281,6950.226,96.108,574.02,570.161,0.0
56453.0,STARLINK-5935,PAYLOAD,2024-04-21 20:48:19,14.98331906,0.0003043,69.9987,76.3006,269.631,90.4501,-0.00012807,-1.621e-05,0.0,0 STARLINK-5935,1 56453U 23064F   24112.86688857 -.00001621  00000-0 -12807-3 0  9997,2 56453  69.9987  76.3006 0003043 269.6310  90.4501 14.98331906 52721,6950.187,96.107,574.167,569.937,0.0
56453.0,STARLINK-5935,PAYLOAD,2024-04-21 22:24:26,14.98371856,0.0002777,69.9982,76.1339,258.1897,101.8951,-0.0007569,-9.122e-05,0.0,0 STARLINK-5935,1 56453U 23064F   24112.93364429 -.00009122  00000-0 -75690-3 0  9994,2 56453  69.9982  76.1339 0002777 258.1897 101.8951 14.98371856 52374,6950.063,96.104,573.858,569.998,0.0
56453.0,STARLINK-5935,PAYLOAD,2024-04-22 04:48:58,14.98340294,0.0002053,70.0013,75.4617,257.2603,102.8327,2.0288e-06,-6.9e-07,0.0,0 STARLINK-5935,1 56453U 23064F   24113.20067961 -.00000069  00000-0  20288-5 0  9991,2 56453  70.0013  75.4617 0002053 257.2603 102.8327 14.98340294 52779,6950.161,96.106,573.453,570.599,0.0
56453.0,STARLINK-5935,PAYLOAD,2024-04-22 08:01:14,14.9834225,0.000188,70.0019,75.1253,251.9582,108.1373,3.9996e-05,3.85e-06,0.0,0 STARLINK-5935,1 56453U 23064F   24113.33419668  .00000385  00000-0  39996-4 0  9995,2 56453  70.0019  75.1253 0001880 251.9582 108.1373 14.98342250 52439,6950.155,96.106,573.327,570.713,0.0
56453.0,STARLINK-5935,PAYLOAD,2024-04-22 22:26:27,14.98304979,0.0002301,70.0025,73.6105,235.4999,124.5943,0.00055001,6.471e-05,0.0,0 STARLINK-5935,1 56453U 23064F   24113.93504183  .00006471  00000-0  55001-3 0  9994,2 56453  70.0025  73.6105 0002301 235.4999 124.5943 14.98304979 52524,6950.27,96.109,573.735,570.536,0.0
56453.0,STARLINK-5935,PAYLOAD,2024-04-23 04:51:00,14.9831996,0.0002614,70.0007,72.9381,252.0254,108.0621,0.00023408,2.7e-05,0.0,0 STARLINK-5935,1 56453U 23064F   24114.20208447  .00002700  00000-0  23408-3 0  9996,2 56453  70.0007  72.9381 0002614 252.0254 108.0621 14.98319960 52928,6950.224,96.108,573.906,570.272,0.0
56453.0,STARLINK-5935,PAYLOAD,2024-04-23 06:27:08,14.98321232,0.0002603,70.0008,72.7699,252.846,107.2415,0.00022215,2.558e-05,0.0,0 STARLINK-5935,1 56453U 23064F   24114.26884434  .00002558  00000-0  22215-3 0  9994,2 56453  70.0008  72.7699 0002603 252.8460 107.2415 14.98321232 52572,6950.22,96.108,573.894,570.276,0.0
56453.0,STARLINK-5935,PAYLOAD,2024-04-23 22:28:28,14.98334484,0.0002614,70.001,71.0863,259.3173,100.7692,-3.5482e-05,-5.16e-06,0.0,0 STARLINK-5935,1 56453U 23064F   24114.93644310 -.00000516  00000-0 -35482-4 0  9990,2 56453  70.0010  71.0863 0002614 259.3173 100.7692 14.98334484 52674,6950.179,96.107,573.861,570.227,0.0
56453.0,STARLINK-5935,PAYLOAD,2024-04-24 03:16:52,14.98334976,0.0002486,70.0011,70.5807,252.9108,107.1779,-3.5271e-05,-5.14e-06,0.0,0 STARLINK-5935,1 56453U 23064F   24115.13672207 -.00000514  00000-0 -35271-4 0  9993,2 56453  70.0011  70.5807 0002486 252.9108 107.1779 14.98334976 53068,6950.178,96.107,573.77,570.315,0.0
56453.0,STARLINK-5935,PAYLOAD,2024-04-24 06:29:08,14.9833854,0.0002659,70.0003,70.2426,267.3291,92.7564,-5.7184e-06,-1.61e-06,0.0,0 STARLINK-5935,1 56453U 23064F   24115.27023911 -.00000161  00000-0 -57184-5 0  9996,2 56453  70.0003  70.2426 0002659 267.3291  92.7564 14.98338540 52722,6950.166,96.106,573.88,570.183,0.0
56453.0,STARLINK-5935,PAYLOAD,2024-04-24 22:30:29,14.98328951,0.0002571,70.0004,68.5597,256.5136,103.5736,3.4342e-05,3.17e-06,0.0,0 STARLINK-5935,1 56453U 23064F   24115.93784168  .00000317  00000-0  34342-4 0  9998,2 56453  70.0004  68.5597 0002571 256.5136 103.5736 14.98328951 52821,6950.196,96.107,573.848,570.274,0.0
56453.0,STARLINK-5935,PAYLOAD,2024-04-25 04:55:01,14.98326213,0.0002526,70.0008,67.8862,255.1984,104.8895,7.9586e-05,8.57e-06,0.0,0 STARLINK-5935,1 56453U 23064F   24116.20488250  .00000857  00000-0  79586-4 0  9990,2 56453  70.0008  67.8862 0002526 255.1984 104.8895 14.98326213 53222,6950.205,96.107,573.825,570.314,0.0
56453.0,STARLINK-5935,PAYLOAD,2024-04-25 06:31:09,14.9833011,0.0002583,70.0008,67.7184,255.5763,104.5109,4.8723e-05,4.88e-06,0.0,0 STARLINK-5935,1 56453U 23064F   24116.27164087  .00000488  00000-0  48723-4 0  9995,2 56453  70.0008  67.7184 0002583 255.5763 104.5109 14.98330110 52876,6950.193,96.107,573.853,570.262,0.0
56453.0,STARLINK-5935,PAYLOAD,2024-04-25 22:32:30,14.98333265,0.0002585,70.0013,66.0353,260.6929,99.3938,-1.2545e-05,-2.43e-06,0.0,0 STARLINK-5935,1 56453U 23064F   24116.93924073 -.00000243  00000-0 -12545-4 0  9991,2 56453  70.0013  66.0353 0002585 260.6929  99.3938 14.98333265 52971,6950.183,96.107,573.844,570.251,0.0
56453.0,STARLINK-5935,PAYLOAD,2024-04-26 04:57:02,14.98331951,0.0002506,70.0012,65.3623,259.3879,100.6998,1.3282e-05,6.6e-07,0.0,0 STARLINK-5935,1 56453U 23064F   24117.20627998  .00000066  00000-0  13282-4 0  9998,2 56453  70.0012  65.3623 0002506 259.3879 100.6998 14.98331951 53371,6950.187,96.107,573.794,570.31,0.0
56453.0,STARLINK-5935,PAYLOAD,2024-04-26 06:33:10,14.98335488,0.0002606,70.0012,65.1961,266.5065,93.5796,3.2125e-05,2.9e-06,0.0,0 STARLINK-5935,1 56453U 23064F   24117.27303769  .00000290  00000-0  32125-4 0  9998,2 56453  70.0012  65.1961 0002606 266.5065  93.5796 14.98335488 53029,6950.176,96.107,573.852,570.23,0.0
56453.0,STARLINK-5935,PAYLOAD,2024-04-26 20:58:23,14.98331442,0.0002682,70.001,63.6782,269.4235,90.6616,5.8022e-05,5.99e-06,0.0,0 STARLINK-5935,1 56453U 23064F   24117.87387836  .00000599  00000-0  58022-4 0  9997,2 56453  70.0010  63.6782 0002682 269.4235  90.6616 14.98331442 53111,6950.188,96.107,573.917,570.189,0.0
56453.0,STARLINK-5935,PAYLOAD,2024-04-27 03:22:54,14.98342715,0.0002834,70.0006,63.0066,257.9903,102.0939,0.00011328,1.259e-05,0.0,0 STARLINK-5935,1 56453U 23064F   24118.14090768  .00001259  00000-0  11328-3 0  9994,2 56453  70.0006  63.0066 0002834 257.9903 102.0939 14.98342715 53513,6950.154,96.106,573.988,570.049,0.0
56453.0,STARLINK-5935,PAYLOAD,2024-04-27 12:59:44,14.98328031,0.0002103,70.0024,61.9946,279.2364,80.8557,-4.2583e-05,-6.01e-06,0.0,0 STARLINK-5935,1 56453U 23064F   24118.54148193 -.00000601  00000-0 -42583-4 0  9994,2 56453  70.0024  61.9946 0002103 279.2364  80.8557 14.98328031 53574,6950.199,96.107,573.526,570.602,0.0
56453.0,STARLINK-5935,PAYLOAD,2024-04-27 22:36:32,14.98319039,0.0002665,70.0018,60.9881,272.6025,87.4829,-4.0923e-05,-5.81e-06,0.0,0 STARLINK-5935,1 56453U 23064F   24118.94204801 -.00000581  00000-0 -40923-4 0  9990,2 56453  70.0018  60.9881 0002665 272.6025  87.4829 14.98319039 53278,6950.227,96.108,573.944,570.24,0.0
56453.0,STARLINK-5935,PAYLOAD,2024-04-28 03:24:57,14.98314324,0.0002898,70.0006,60.4804,275.6374,84.4454,-0.00011839,-1.505e-05,0.0,0 STARLINK-5935,1 56453U 23064F   24119.14233400 -.00001505  00000-0 -11839-3 0  9990,2 56453  70.0006  60.4804 0002898 275.6374  84.4454 14.98314324 53669,6950.241,96.108,574.121,570.092,0.0
56453.0,STARLINK-5935,PAYLOAD,2024-04-28 13:01:45,14.98331239,0.0003158,69.9995,59.4702,272.8959,87.1839,-0.00011211,-1.43e-05,0.0,0 STARLINK-5935,1 56453U 23064F   24119.54288320 -.00001430  00000-0 -11211-3 0  9996,2 56453  69.9995  59.4702 0003158 272.8959  87.1839 14.98331239 53724,6950.189,96.107,574.249,569.859,0.0
56453.0,STARLINK-5935,PAYLOAD,2024-04-28 22:38:33,14.98322198,0.0003205,69.9996,58.4592,269.6973,90.3818,0.00011621,1.294e-05,0.0,0 STARLINK-5935,1 56453U 23064F   24119.94344227  .00001294  00000-0  11621-3 0  9990,2 56453  69.9996  58.4592 0003205 269.6973  90.3818 14.98322198 53428,6950.217,96.107,574.31,569.854,0.0
